H1 CPF 01  gfz 2021 11 20 13  8242 tandemx   
H2 1003001  6202 36605    2021 11 20 12 59 42 2021 11 25 00 00 42   120 1 1  0 0 0
H9
10 0 59540  39582.000000  0   -1140987.510    814952.045  -6751279.572
10 0 59540  39702.000000  0   -1337290.580   1689125.504  -6550062.778
10 0 59540  39822.000000  0   -1495356.865   2537141.011  -6234572.786
10 0 59540  39942.000000  0   -1613024.294   3343591.978  -5810243.921
10 0 59540  40062.000000  0   -1689086.704   4093733.534  -5284400.250
10 0 59540  40182.000000  0   -1723302.623   4773752.561  -4666140.829
10 0 59540  40302.000000  0   -1716384.426   5371027.146  -3966193.252
10 0 59540  40422.000000  0   -1669966.767   5874368.185  -3196736.238
10 0 59540  40542.000000  0   -1586554.610   6274238.082  -2371194.956
10 0 59540  40662.000000  0   -1469452.613   6562943.272  -1504011.219
10 0 59540  40782.000000  0   -1322676.384   6734793.453   -610390.515
10 0 59540  40902.000000  0   -1150847.962   6786223.926    293966.894
10 0 59540  41022.000000  0    -959077.232   6715878.471   1193148.791
10 0 59540  41142.000000  0    -752832.877   6524646.048   2071322.104
10 0 59540  41262.000000  0    -537805.839   6215649.181   2913021.153
10 0 59540  41382.000000  0    -319769.188   5794188.814   3703426.378
10 0 59540  41502.000000  0    -104438.617   5267647.917   4428629.966
10 0 59540  41622.000000  0     102663.881   4645353.796   5075887.185
10 0 59540  41742.000000  0     296341.070   3938398.576   5633838.393
10 0 59540  41862.000000  0     471840.775   3159434.706   6092704.027
10 0 59540  41982.000000  0     624963.587   2322439.958   6444452.467
10 0 59540  42102.000000  0     752156.064   1442460.811   6682934.146
10 0 59540  42222.000000  0     850587.928    535338.164   6803983.315
10 0 59540  42342.000000  0     918211.725   -382578.289   6805485.404
10 0 59540  42462.000000  0     953804.065  -1294723.628   6687412.836
10 0 59540  42582.000000  0     956987.703  -2184616.621   6451826.011
10 0 59540  42702.000000  0     928234.168  -3036157.707   6102840.267
10 0 59540  42822.000000  0     868846.359  -3833922.690   5646557.394
10 0 59540  42942.000000  0     780922.271  -4563443.765   5090962.919
10 0 59540  43062.000000  0     667301.235  -5211475.760   4445793.146
10 0 59540  43182.000000  0     531492.495  -5766245.141   3722371.069
10 0 59540  43302.000000  0     377586.925  -6217674.591   2933410.431
10 0 59540  43422.000000  0     210154.251  -6557576.423   2092792.038
10 0 59540  43542.000000  0      34127.805  -6779809.797   1215317.020
10 0 59540  43662.000000  0    -145319.678  -6880400.766    316441.617
10 0 59540  43782.000000  0    -322907.572  -6857618.699   -588004.772
10 0 59540  43902.000000  0    -493381.025  -6712005.118  -1482108.474
10 0 59540  44022.000000  0    -651643.522  -6446356.427  -2350159.621
10 0 59540  44142.000000  0    -792885.475  -6065663.156  -3176934.269
10 0 59540  44262.000000  0    -912705.889  -5577006.242  -3947965.870
10 0 59540  44382.000000  0   -1007223.682  -4989412.425  -4649799.427
10 0 59540  44502.000000  0   -1073175.969  -4313674.454  -5270222.165
10 0 59540  44622.000000  0   -1108001.521  -3562142.020  -5798468.723
10 0 59540  44742.000000  0   -1109907.484  -2748487.723  -6225398.443
10 0 59540  44862.000000  0   -1077918.475  -1887452.893  -6543642.570
10 0 59540  44982.000000  0   -1011907.497   -994579.102  -6747719.682
10 0 59540  45102.000000  0    -912608.661    -85930.269  -6834120.391
10 0 59540  45222.000000  0    -781610.675    822191.298  -6801360.456
10 0 59540  45342.000000  0    -621331.517   1713529.635  -6650002.857
10 0 59540  45462.000000  0    -434975.582   2572158.402  -6382649.175
10 0 59540  45582.000000  0    -226473.052   3382759.282  -6003901.096
10 0 59540  45702.000000  0       -401.391   4130893.096  -5520290.244
10 0 59540  45822.000000  0     238108.999   4803256.837  -4940175.644
10 0 59540  45942.000000  0     483483.227   5387924.588  -4273611.288
10 0 59540  46062.000000  0     729823.317   5874567.518  -3532182.174
10 0 59540  46182.000000  0     971040.121   6254646.840  -2728811.035
10 0 59540  46302.000000  0    1200993.000   6521576.082  -1877538.522
10 0 59540  46422.000000  0    1413634.241   6670848.168   -993279.017
10 0 59540  46542.000000  0    1603154.832   6700122.795    -91556.401
10 0 59540  46662.000000  0    1764127.513   6609270.181    811774.754
10 0 59540  46782.000000  0    1891642.655   6400370.672   1700815.275
10 0 59540  46902.000000  0    1981434.627   6077670.691   2559909.230
10 0 59540  47022.000000  0    2029995.163   5647495.502   3373927.395
10 0 59540  47142.000000  0    2034670.654   5118121.245   4128541.313
10 0 59540  47262.000000  0    1993739.953   4499607.890   4810481.159
10 0 59540  47382.000000  0    1906472.181   3803596.658   5407771.678
10 0 59540  47502.000000  0    1773161.994   3043080.969   5909938.218
10 0 59540  47622.000000  0    1595143.947   2232157.864   6308186.198
10 0 59540  47742.000000  0    1374784.062   1385760.753   6595550.572
10 0 59540  47862.000000  0    1115449.377    519379.857   6767011.017
10 0 59540  47982.000000  0     821456.378   -351221.609   6819573.095
10 0 59540  48102.000000  0     497999.056  -1210293.047   6752318.838
10 0 59540  48222.000000  0     151056.931  -2042381.827   6566422.344
10 0 59540  48342.000000  0    -212715.593  -2832611.293   6265130.535
10 0 59540  48462.000000  0    -586115.877  -3566948.247   5853708.458
10 0 59540  48582.000000  0    -961532.745  -4232452.634   5339350.765
10 0 59540  48702.000000  0   -1331098.431  -4817508.656   4731064.049
10 0 59540  48822.000000  0   -1686852.011  -5312035.943   4039517.153
10 0 59540  48942.000000  0   -2020909.126  -5707673.649   3276857.505
10 0 59540  49062.000000  0   -2325634.418  -5997930.688   2456497.938
10 0 59540  49182.000000  0   -2593812.564  -6178299.451   1592879.015
10 0 59540  49302.000000  0   -2818813.264  -6246331.348    701210.230
10 0 59540  49422.000000  0   -2994746.349  -6201671.384   -202804.859
10 0 59540  49542.000000  0   -3116602.977  -6046050.553  -1103253.689
10 0 59540  49662.000000  0   -3180379.483  -5783235.860  -1984303.829
10 0 59540  49782.000000  0   -3183180.757  -5418939.282  -2830489.364
10 0 59540  49902.000000  0   -3123300.343  -4960688.288  -3626988.488
10 0 59540  50022.000000  0   -3000274.901  -4417661.513  -4359885.296
10 0 59540  50142.000000  0   -2814912.780  -3800495.821  -5016410.454
10 0 59540  50262.000000  0   -2569297.137  -3121069.881  -5585157.772
10 0 59540  50382.000000  0   -2266764.067  -2392269.189  -6056273.764
10 0 59540  50502.000000  0   -1911855.645  -1627737.786  -6421618.303
10 0 59540  50622.000000  0   -1510248.969   -841621.424  -6674893.837
10 0 59540  50742.000000  0   -1068664.361    -48307.762  -6811742.189
10 0 59540  50862.000000  0    -594754.140    737831.604  -6829810.554
10 0 59540  50982.000000  0     -96972.156   1502694.692  -6728787.608
10 0 59540  51102.000000  0     415572.408   2232695.180  -6510408.089
10 0 59540  51222.000000  0     933277.061   2914998.689  -6178428.552
10 0 59540  51342.000000  0    1446222.501   3537746.249  -5738569.738
10 0 59540  51462.000000  0    1944358.216   4090260.021  -5198427.060
10 0 59540  51582.000000  0    2417696.489   4563229.113  -4567351.336
10 0 59540  51702.000000  0    2856511.106   4948873.155  -3856297.962
10 0 59540  51822.000000  0    3251536.305   5241078.497  -3077645.755
10 0 59540  51942.000000  0    3594163.074   5435504.642  -2244988.460
10 0 59540  52062.000000  0    3876627.537   5529656.877  -1372900.044
10 0 59540  52182.000000  0    4092186.060   5522923.515   -476678.764
10 0 59540  52302.000000  0    4235272.683   5416575.710    427925.948
10 0 59540  52422.000000  0    4301634.832   5213728.501   1324997.507
10 0 59540  52542.000000  0    4288442.278   4919264.209   2198739.556
10 0 59540  52662.000000  0    4194369.626   4539723.206   3033762.534
10 0 59540  52782.000000  0    4019646.193   4083158.399   3815364.604
10 0 59540  52902.000000  0    3766073.311   3558961.097   4529794.730
10 0 59540  53022.000000  0    3437012.098   2977663.830   5164497.188
10 0 59540  53142.000000  0    3037336.350   2350723.260   5708334.534
10 0 59540  53262.000000  0    2573355.630   1690288.417   6151777.279
10 0 59540  53382.000000  0    2052712.562   1008961.610   6487065.731
10 0 59540  53502.000000  0    1484253.185    319555.461   6708339.218
10 0 59540  53622.000000  0     877874.047   -365147.100   6811732.792
10 0 59540  53742.000000  0     244348.842  -1032629.548   6795441.980
10 0 59540  53862.000000  0    -404863.444  -1670870.825   6659752.008
10 0 59540  53982.000000  0   -1057825.834  -2268561.711   6407032.484
10 0 59540  54102.000000  0   -1702341.747  -2815305.178   6041696.963
10 0 59540  54222.000000  0   -2326180.219  -3301797.689   5570131.095
10 0 59540  54342.000000  0   -2917308.613  -3719991.190   5000589.259
10 0 59540  54462.000000  0   -3464129.070  -4063231.383   4343056.298
10 0 59540  54582.000000  0   -3955710.181  -4326367.998   3609075.763
10 0 59540  54702.000000  0   -4382008.946  -4505835.919   2811549.408
10 0 59540  54822.000000  0   -4734079.786  -4599705.787   1964511.041
10 0 59540  54942.000000  0   -5004265.968  -4607701.859   1082876.115
10 0 59540  55062.000000  0   -5186367.135  -4531185.415    182173.012
10 0 59540  55182.000000  0   -5275779.199  -4373104.862   -721738.354
10 0 59540  55302.000000  0   -5269602.667  -4137913.503  -1612955.252
10 0 59540  55422.000000  0   -5166715.615  -3831456.027  -2475821.607
10 0 59540  55542.000000  0   -4967809.421  -3460827.484  -3295209.525
10 0 59540  55662.000000  0   -4675388.332  -3034210.033  -4056787.381
10 0 59540  55782.000000  0   -4293733.732  -2560691.466  -4747270.201
10 0 59540  55902.000000  0   -3828833.553  -2050069.837  -5354647.497
10 0 59540  56022.000000  0   -3288279.837  -1512649.470  -5868384.758
99
